UNKNOWN                 
1 81605U          26076.36936682 -.00000929  00000+0 -33993-2 0  9994
2 81605  56.4331 305.4817 0145223 269.3194  89.1090 12.81405994198337
UNKNOWN                 
1 81614U          26075.44649100  .00005373  00000+0  33317-1 0  9993
2 81614 101.8519  73.4821 0356281 334.5803  23.8105 12.38268946549571
UNKNOWN                 
1 81615U          26075.42881954  .00001876  00000+0  69671-3 0  9995
2 81615  65.8287 203.7482 0766298  92.7114 276.1803 13.34508440595364
UNKNOWN                 
1 81617U          26075.90028612  .00000354  00000+0  23530-2 0  9997
2 81617 101.2692 251.2784 0031395  56.3330 304.0734 12.57611972564946
UNKNOWN                 
1 81624U          26057.07858416  .00004588  00000+0  72056-3 0  9997
2 81624  66.9770 318.5702 0063505 176.9023 183.2505 14.72174479650798
UNKNOWN                 
1 81640U          26075.88014566  .00000330  00000+0  35412-3 0  9990
2 81640  65.8249 299.4762 0979770  39.2134 327.5840 12.57310794521911
UNKNOWN                 
1 81652U          26075.60003536  .00000549  00000+0  70070-3 0  9999
2 81652 102.1445 348.5584 0363675 149.7356 332.7157 13.44511074591264
UNKNOWN                 
1 81667U          26075.80861819  .00002371  00000+0  63668-3 0  9993
2 81667  74.0375 220.4375 0014467 131.0265 229.2147 14.48594138470262
UNKNOWN                 
1 81674U          26070.58227233  .00001299  00000+0  77691-3 0  9996
2 81674  66.8276 140.5396 0023820 174.4973 255.3823 14.10159484626246
UNKNOWN                 
1 81683U          26076.60666965  .00002777  00000+0  59762-3 0  9995
2 81683  81.2178 195.2702 0022466   8.2342 351.9219 14.58139086649688
UNKNOWN                 
1 81693U          26075.87105193  .00001462  00000+0  10643-1 0  9998
2 81693 101.1008 132.0166 0378192 263.5501  92.2374 12.26085756979308
UNKNOWN                 
1 81745U          26076.56559968  .00001862  00000+0  59569-3 0  9992
2 81745  71.0015 179.8712 0002964  49.6919 310.4476 14.40905900643409
